{"type": "FeatureCollection", "features": [ {"type": "Feature", "properties": {"norad_id": 34732, "name": "COSMOS 2251 DEB", "group": "cosmos-2251-debris", "lat": 59.2167237246221, "lon": -97.28313773603172, "alt_km": 752.7287035943955, "timestamp": "2025-12-02T23:34:15.912219+00:00", "meta": {"OBJECT_NAME": "COSMOS 2251 DEB", "OBJECT_ID": "1993-036ZA", "EPOCH": "2025-12-02T02:01:16.053312", "MEAN_MOTION": 14.47279623, "ECCENTRICITY": 0.00404868, "INCLINATION": 74.044, "RA_OF_ASC_NODE": 113.0964, "ARG_OF_PERICENTER": 266.0706, "MEAN_ANOMALY": 214.3828, "EPHEMERIS_TYPE": 0, "CLASSIFICATION_TYPE": "U", "NORAD_CAT_ID": 34732, "ELEMENT_SET_NO": 999, "REV_AT_EPOCH": 87989, "BSTAR": 0.0001843837, "MEAN_MOTION_DOT": 6.53e-06, "MEAN_MOTION_DDOT": 0}, "tle": {"line1": "1 34732U 93036ZA  25336.08421358  .00000653  00000+0  18438-3 0  9990", "line2": "2 34732  74.0440 113.0964 0040486 266.0706 214.3828 14.47279623879897"}}, "geometry": {"type": "Point", "coordinates": [-97.28313773603172, 59.2167237246221]}}, {"type": "Feature", "properties": {"norad_id": 34736, "name": "COSMOS 2251 DEB", "group": "cosmos-2251-debris", "lat": 52.85908713920551, "lon": -144.79741377829592, "alt_km": 451.12869399689407, "timestamp": "2025-12-02T23:34:15.912230+00:00", "meta": {"OBJECT_NAME": "COSMOS 2251 DEB", "OBJECT_ID": "1993-036ZE", "EPOCH": "2025-12-02T12:06:37.585152", "MEAN_MOTION": 15.38338402, "ECCENTRICITY": 0.0014658, "INCLINATION": 74.0053, "RA_OF_ASC_NODE": 58.488, "ARG_OF_PERICENTER": 355.7945, "MEAN_ANOMALY": 4.3136, "EPHEMERIS_TYPE": 0, "CLASSIFICATION_TYPE": "U", "NORAD_CAT_ID": 34736, "ELEMENT_SET_NO": 999, "REV_AT_EPOCH": 88290, "BSTAR": 0.0090948, "MEAN_MOTION_DOT": 0.00361631, "MEAN_MOTION_DDOT": 0}, "tle": {"line1": "1 34736U 93036ZE  25336.50460168  .00361631  00000+0  90948-2 0  9994", "line2": "2 34736  74.0053  58.4880 0014658 355.7945   4.3136 15.38338402882900"}}, "geometry": {"type": "Point", "coordinates": [-144.79741377829592, 52.85908713920551]}}, {"type": "Feature", "properties": {"norad_id": 34738, "name": "COSMOS 2251 DEB", "group": "cosmos-2251-debris", "lat": -3.9592880099563477, "lon": -17.360425735816257, "alt_km": 760.4094618944073, "timestamp": "2025-12-02T23:34:15.912240+00:00", "meta": {"OBJECT_NAME": "COSMOS 2251 DEB", "OBJECT_ID": "1993-036ZG", "EPOCH": "2025-12-02T12:54:00.749088", "MEAN_MOTION": 14.46263571, "ECCENTRICITY": 0.0047109, "INCLINATION": 74.0141, "RA_OF_ASC_NODE": 162.3334, "ARG_OF_PERICENTER": 310.5369, "MEAN_ANOMALY": 79.9077, "EPHEMERIS_TYPE": 0, "CLASSIFICATION_TYPE": "U", "NORAD_CAT_ID": 34738, "ELEMENT_SET_NO": 999, "REV_AT_EPOCH": 87711, "BSTAR": 0.00037485, "MEAN_MOTION_DOT": 1.333e-05, "MEAN_MOTION_DDOT": 0}, "tle": {"line1": "1 34738U 93036ZG  25336.53750867  .00001333  00000+0  37485-3 0  9995", "line2": "2 34738  74.0141 162.3334 0047109 310.5369  79.9077 14.46263571877116"}}, "geometry": {"type": "Point", "coordinates": [-17.360425735816257, -3.9592880099563477]}}, {"type": "Feature", "properties": {"norad_id": 34750, "name": "COSMOS 2251 DEB", "group": "cosmos-2251-debris", "lat": 2.5445976628109284, "lon": 39.599943905419174, "alt_km": 663.9302458645043, "timestamp": "2025-12-02T23:34:15.912250+00:00", "meta": {"OBJECT_NAME": "COSMOS 2251 DEB", "OBJECT_ID": "1993-036ZU", "EPOCH": "2025-12-02T03:36:29.142720", "MEAN_MOTION": 14.61150871, "ECCENTRICITY": 0.0039342, "INCLINATION": 74.1086, "RA_OF_ASC_NODE": 221.9078, "ARG_OF_PERICENTER": 178.4434, "MEAN_ANOMALY": 305.2442, "EPHEMERIS_TYPE": 0, "CLASSIFICATION_TYPE": "U", "NORAD_CAT_ID": 34750, "ELEMENT_SET_NO": 999, "REV_AT_EPOCH": 88076, "BSTAR": 0.0011876712, "MEAN_MOTION_DOT": 5.884e-05, "MEAN_MOTION_DDOT": 0}, "tle": {"line1": "1 34750U 93036ZU  25336.15033730  .00005884  00000+0  11877-2 0  9991", "line2": "2 34750  74.1086 221.9078 0039342 178.4434 305.2442 14.61150871880761"}}, "geometry": {"type": "Point", "coordinates": [39.599943905419174, 2.5445976628109284]}}, {"type": "Feature", "properties": {"norad_id": 34752, "name": "COSMOS 2251 DEB", "group": "cosmos-2251-debris", "lat": 43.741562489237744, "lon": 36.38228332780813, "alt_km": 573.4602771872342, "timestamp": "2025-12-02T23:34:15.912260+00:00", "meta": {"OBJECT_NAME": "COSMOS 2251 DEB", "OBJECT_ID": "1993-036ZW", "EPOCH": "2025-12-02T12:09:26.478144", "MEAN_MOTION": 14.99547096, "ECCENTRICITY": 0.0048497, "INCLINATION": 74.0146, "RA_OF_ASC_NODE": 21.4262, "ARG_OF_PERICENTER": 153.2836, "MEAN_ANOMALY": 207.0865, "EPHEMERIS_TYPE": 0, "CLASSIFICATION_TYPE": "U", "NORAD_CAT_ID": 34752, "ELEMENT_SET_NO": 999, "REV_AT_EPOCH": 89696, "BSTAR": 0.0011243, "MEAN_MOTION_DOT": 0.00014153, "MEAN_MOTION_DDOT": 0}, "tle": {"line1": "1 34752U 93036ZW  25336.50655646  .00014153  00000+0  11243-2 0  9994", "line2": "2 34752  74.0146  21.4262 0048497 153.2836 207.0865 14.99547096896962"}}, "geometry": {"type": "Point", "coordinates": [36.38228332780813, 43.741562489237744]}}, {"type": "Feature", "properties": {"norad_id": 34754, "name": "COSMOS 2251 DEB", "group": "cosmos-2251-debris", "lat": -55.81551855726039, "lon": -139.284386510301, "alt_km": 754.2379622592944, "timestamp": "2025-12-02T23:34:15.912270+00:00", "meta": {"OBJECT_NAME": "COSMOS 2251 DEB", "OBJECT_ID": "1993-036ZY", "EPOCH": "2025-12-02T04:32:18.437856", "MEAN_MOTION": 14.40455255, "ECCENTRICITY": 0.00291165, "INCLINATION": 74.0309, "RA_OF_ASC_NODE": 247.1171, "ARG_OF_PERICENTER": 5.4462, "MEAN_ANOMALY": 144.8545, "EPHEMERIS_TYPE": 0, "CLASSIFICATION_TYPE": "U", "NORAD_CAT_ID": 34754, "ELEMENT_SET_NO": 999, "REV_AT_EPOCH": 87981, "BSTAR": 0.00026434584, "MEAN_MOTION_DOT": 8.18e-06, "MEAN_MOTION_DDOT": 0}, "tle": {"line1": "1 34754U 93036ZY  25336.18910229  .00000818  00000+0  26435-3 0  9994", "line2": "2 34754  74.0309 247.1171 0029116   5.4462 144.8545 14.40455255879810"}}, "geometry": {"type": "Point", "coordinates": [-139.284386510301, -55.81551855726039]}}, {"type": "Feature", "properties": {"norad_id": 34755, "name": "COSMOS 2251 DEB", "group": "cosmos-2251-debris", "lat": -33.119365473208966, "lon": -65.12943594486016, "alt_km": 772.1891160989726, "timestamp": "2025-12-02T23:34:15.912281+00:00", "meta": {"OBJECT_NAME": "COSMOS 2251 DEB", "OBJECT_ID": "1993-036ZZ", "EPOCH": "2025-11-28T15:26:25.154880", "MEAN_MOTION": 13.50483978, "ECCENTRICITY": 0.04082229, "INCLINATION": 73.9254, "RA_OF_ASC_NODE": 312.682, "ARG_OF_PERICENTER": 334.9897, "MEAN_ANOMALY": 144.2013, "EPHEMERIS_TYPE": 0, "CLASSIFICATION_TYPE": "U", "NORAD_CAT_ID": 34755, "ELEMENT_SET_NO": 999, "REV_AT_EPOCH": 82333, "BSTAR": 0.001766679, "MEAN_MOTION_DOT": 1.881e-05, "MEAN_MOTION_DDOT": 0}, "tle": {"line1": "1 34755U 93036ZZ  25332.64334670  .00001881  00000+0  17667-2 0  9999", "line2": "2 34755  73.9254 312.6820 0408222 334.9897 144.2013 13.50483978823331"}}, "geometry": {"type": "Point", "coordinates": [-65.12943594486016, -33.119365473208966]}}, {"type": "Feature", "properties": {"norad_id": 34756, "name": "COSMOS 2251 DEB", "group": "cosmos-2251-debris", "lat": 6.060467600614915, "lon": 122.16050657416895, "alt_km": 759.0759176615302, "timestamp": "2025-12-02T23:34:15.912291+00:00", "meta": {"OBJECT_NAME": "COSMOS 2251 DEB", "OBJECT_ID": "1993-036AAA", "EPOCH": "2025-12-02T11:15:01.010016", "MEAN_MOTION": 13.67209606, "ECCENTRICITY": 0.034454, "INCLINATION": 74.0021, "RA_OF_ASC_NODE": 121.259, "ARG_OF_PERICENTER": 359.3162, "MEAN_ANOMALY": 0.7434, "EPHEMERIS_TYPE": 0, "CLASSIFICATION_TYPE": "U", "NORAD_CAT_ID": 34756, "ELEMENT_SET_NO": 999, "REV_AT_EPOCH": 83281, "BSTAR": 0.0010647, "MEAN_MOTION_DOT": 1.324e-05, "MEAN_MOTION_DDOT": 0}, "tle": {"line1": "1 34756U 93036AAA 25336.46876169  .00001324  00000+0  10647-2 0  9991", "line2": "2 34756  74.0021 121.2590 0344540 359.3162   0.7434 13.67209606832810"}}, "geometry": {"type": "Point", "coordinates": [122.16050657416895, 6.060467600614915]}}, {"type": "Feature", "properties": {"norad_id": 34758, "name": "COSMOS 2251 DEB", "group": "cosmos-2251-debris", "lat": 71.62150238097544, "lon": 14.236985563253782, "alt_km": 753.1104404802163, "timestamp": "2025-12-02T23:34:15.912301+00:00", "meta": {"OBJECT_NAME": "COSMOS 2251 DEB", "OBJECT_ID": "1993-036AAC", "EPOCH": "2025-12-02T09:03:10.289952", "MEAN_MOTION": 13.58026185, "ECCENTRICITY": 0.0380641, "INCLINATION": 74.1071, "RA_OF_ASC_NODE": 316.1731, "ARG_OF_PERICENTER": 82.3906, "MEAN_ANOMALY": 282.0258, "EPHEMERIS_TYPE": 0, "CLASSIFICATION_TYPE": "U", "NORAD_CAT_ID": 34758, "ELEMENT_SET_NO": 999, "REV_AT_EPOCH": 82769, "BSTAR": 0.0011874, "MEAN_MOTION_DOT": 1.359e-05, "MEAN_MOTION_DDOT": 0}, "tle": {"line1": "1 34758U 93036AAC 25336.37720243  .00001359  00000+0  11874-2 0  9995", "line2": "2 34758  74.1071 316.1731 0380641  82.3906 282.0258 13.58026185827699"}}, "geometry": {"type": "Point", "coordinates": [14.236985563253782, 71.62150238097544]}}, {"type": "Feature", "properties": {"norad_id": 34760, "name": "COSMOS 2251 DEB", "group": "cosmos-2251-debris", "lat": -27.222888788446202, "lon": -48.679096327371255, "alt_km": 780.9117985637395, "timestamp": "2025-12-02T23:34:15.912312+00:00", "meta": {"OBJECT_NAME": "COSMOS 2251 DEB", "OBJECT_ID": "1993-036AAE", "EPOCH": "2025-12-01T05:29:20.078304", "MEAN_MOTION": 14.1951855, "ECCENTRICITY": 0.0096194, "INCLINATION": 74.0625, "RA_OF_ASC_NODE": 322.9016, "ARG_OF_PERICENTER": 17.7277, "MEAN_ANOMALY": 357.7821, "EPHEMERIS_TYPE": 0, "CLASSIFICATION_TYPE": "U", "NORAD_CAT_ID": 34760, "ELEMENT_SET_NO": 999, "REV_AT_EPOCH": 86525, "BSTAR": 0.00076737, "MEAN_MOTION_DOT": 1.669e-05, "MEAN_MOTION_DDOT": 0}, "tle": {"line1": "1 34760U 93036AAE 25335.22870461  .00001669  00000+0  76737-3 0  9993", "line2": "2 34760  74.0625 322.9016 0096194  17.7277 357.7821 14.19518550865257"}}, "geometry": {"type": "Point", "coordinates": [-48.679096327371255, -27.222888788446202]}}]}